OBJECT_NAME,OBJECT_ID,EPOCH,MEAN_MOTION,ECCENTRICITY,INCLINATION,RA_OF_ASC_NODE,ARG_OF_PERICENTER,MEAN_ANOMALY,EPHEMERIS_TYPE,CLASSIFICATION_TYPE,NORAD_CAT_ID,ELEMENT_SET_NO,REV_AT_EPOCH,BSTAR,MEAN_MOTION_DOT,MEAN_MOTION_DDOT
EYESAT A (AO-27),1993-061C,2026-06-14T09:54:16.574112,14.30941559,.0009514,98.6881,232.8272,106.8883,253.3343,0,U,22825,999,70660,.50043184E-4,.87E-6,0
ITAMSAT (IO-26),1993-061D,2026-06-14T11:06:28.948320,14.31368412,.00100975,98.6828,232.7945,92.1193,268.1146,0,U,22826,999,70692,.48465703E-4,.84E-6,0
RADIO ROSTO (RS15),1994-085A,2026-06-14T13:03:21.383136,11.27583509,.01558692,64.8180,307.4910,4.3656,355.8588,0,U,23439,999,29560,-.26062007E-3,-.52E-6,0
JAS-2 (FO-29),1996-046B,2026-06-14T13:48:46.455552,13.53274188,.03508709,98.5241,14.8055,103.1913,260.8616,0,U,24278,999,47281,.51039079E-4,.18E-6,0
FORTE,1997-047A,2026-06-14T00:18:13.782528,14.27944061,.0024599,69.9540,21.1920,281.2336,78.6022,0,U,24920,999,49823,.81794341E-4,.145E-5,0
TECHSAT 1B (GO-32),1998-043D,2026-06-14T12:51:19.434240,14.24427952,.00009138,99.0066,158.2273,168.5356,191.5843,0,U,25397,999,45095,.38753809E-4,.43E-6,0
ISS (ZARYA),1998-067A,2026-06-14T11:31:37.334208,15.49225904,.00049254,51.6335,313.4905,185.2578,174.8360,0,U,25544,999,57133,.15997538E-3,.8443E-4,0
IMAGE,2000-017A,2026-06-11T08:17:58.695072,1.68665984,.7436383,94.2241,315.2958,288.4674,8.8959,0,U,26113,999,16140,.22926E-1,.11E-6,0
CLUSTER II-FM7 (SAMBA),2000-041A,2026-06-17T03:20:03.974496,0.44866443,.90540571,149.9162,50.9861,268.1289,359.6411,0,U,26410,999,2030,0,.13374E-3,0
CLUSTER II-FM8 (TANGO),2000-045B,2026-06-12T22:27:54.400320,0.44405929,.90539007,150.1471,51.3037,268.2440,3.0100,0,U,26464,999,2029,0,.6612E-4,0
ODIN,2001-007A,2026-06-14T11:45:48.282624,15.74977576,.00067462,97.3842,206.2610,145.7949,214.3752,0,U,26702,999,38897,.11406613E-2,.172083E-2,0
OMNI-M1,2001-026A,2026-06-14T04:05:48.391872,3.92401509,.00141634,44.8314,245.9594,52.8796,307.3086,0,U,26857,999,20545,0,.5E-7,0
PCSAT (NO-44),2001-043C,2026-06-14T13:48:03.024000,14.31955265,.00060719,67.0507,251.0280,264.5660,95.4750,0,U,26931,999,29007,.66992702E-4,.97E-6,0
PROBA-1,2001-049B,2026-06-14T14:44:39.250752,15.07487324,.00562286,97.9598,174.0567,130.3752,230.2403,0,U,26958,999,34323,.12788739E-3,.1939E-4,0
SAUDISAT 1C (SO-50),2002-058C,2026-06-14T07:45:18.812160,14.83041320,.00753336,64.5509,137.8468,263.0043,96.2490,0,U,27607,999,26403,.12618747E-3,.923E-5,0
CORIOLIS,2003-001A,2026-06-14T14:09:33.702624,14.19944124,.00132286,98.7125,172.5144,216.6788,143.3484,0,U,27640,999,21385,.56775798E-4,.77E-6,0
CUTE-1 (CO-55),2003-031E,2026-06-14T12:11:52.449216,14.24334231,.00093508,98.6736,174.1008,185.7557,174.3516,0,U,27844,999,19129,.12809908E-3,.252E-5,0
CUBESAT XI-IV (CO-57),2003-031J,2026-06-14T06:49:41.657088,14.23619426,.0008829,98.6766,173.5948,205.9293,154.1445,0,U,27848,999,19096,.11362E-3,.215E-5,0
MOZHAETS 4 (RS22),2003-042A,2026-06-14T15:17:03.975648,14.73464228,.00099771,98.3464,349.9238,278.9348,169.9978,0,U,27939,999,21517,.17831866E-3,.1104E-4,0
